NORAD_CAT_ID,OBJECT_NAME,OBJECT_TYPE,EPOCH,MEAN_MOTION,ECCENTRICITY,INCLINATION,RA_OF_ASC_NODE,ARG_OF_PERICENTER,MEAN_ANOMALY,BSTAR,MEAN_MOTION_DOT,MEAN_MOTION_DDOT,TLE_LINE0,TLE_LINE1,TLE_LINE2,SEMIMAJOR_AXIS,PERIOD,APOGEE,PERIGEE,DECAYED
55401.0,STARLINK-5076,PAYLOAD,2024-07-07 08:20:52,14.98332523,0.0003536,69.9994,163.2814,263.6725,96.4032,4.6148e-05,4.58e-06,0.0,0 STARLINK-5076,1 55401U 23014L   24189.34782878  .00000458  00000-0  46148-4 0  9990,2 55401  69.9994 163.2814 0003536 263.6725  96.4032 14.98332523 79691,6950.185,96.107,574.508,569.593,0.0
55401.0,STARLINK-5076,PAYLOAD,2024-07-08 08:22:52,14.98337296,0.000348,69.9995,160.7569,263.8516,96.2246,0.00010313,1.138e-05,0.0,0 STARLINK-5076,1 55401U 23014L   24190.34922261  .00001138  00000-0  10313-3 0  9994,2 55401  69.9995 160.7569 0003480 263.8516  96.2246 14.98337296 79843,6950.17,96.107,574.454,569.617,0.0
55401.0,STARLINK-5076,PAYLOAD,2024-07-08 21:11:57,14.98329373,0.0003307,70.0,159.4105,265.5676,94.5105,5.3744e-06,-2.9e-07,0.0,0 STARLINK-5076,1 55401U 23014L   24190.88331008 -.00000029  00000-0  53744-5 0  9992,2 55401  70.0000 159.4105 0003307 265.5676  94.5105 14.98329373 79929,6950.195,96.107,574.358,569.761,0.0
55401.0,STARLINK-5076,PAYLOAD,2024-07-08 22:48:06,14.98329452,0.000331,70.0,159.2422,265.4874,94.5907,5.2673e-06,-3e-07,0.0,0 STARLINK-5076,1 55401U 23014L   24190.95006997 -.00000030  00000-0  52673-5 0  9998,2 55401  70.0000 159.2422 0003310 265.4874  94.5907 14.98329452 80876,6950.195,96.107,574.36,569.759,0.0
55401.0,STARLINK-5076,PAYLOAD,2024-07-09 08:24:54,14.98330056,0.0003257,70.0001,158.2324,264.9623,95.1165,3.4396e-05,3.17e-06,0.0,0 STARLINK-5076,1 55401U 23014L   24191.35062864  .00000317  00000-0  34396-4 0  9996,2 55401  70.0001 158.2324 0003257 264.9623  95.1165 14.98330056 80935,6950.193,96.107,574.321,569.794,0.0
55401.0,STARLINK-5076,PAYLOAD,2024-07-09 22:50:06,14.98330992,0.0003222,70.0002,156.7176,265.5555,94.5236,-3.3462e-05,-4.92e-06,0.0,0 STARLINK-5076,1 55401U 23014L   24191.95146984 -.00000492  00000-0 -33462-4 0  9997,2 55401  70.0002 156.7176 0003222 265.5555  94.5236 14.98330992 81029,6950.19,96.107,574.294,569.815,0.0
55401.0,STARLINK-5076,PAYLOAD,2024-07-10 05:14:39,14.9833027,0.0003232,70.0001,156.0444,265.2682,94.8108,-3.8176e-05,-5.49e-06,0.0,0 STARLINK-5076,1 55401U 23014L   24192.21851028 -.00000549  00000-0 -38176-4 0  9999,2 55401  70.0001 156.0444 0003232 265.2682  94.8108 14.98330270 80128,6950.192,96.107,574.303,569.811,0.0
55401.0,STARLINK-5076,PAYLOAD,2024-07-10 08:26:55,14.98331282,0.0003229,70.0001,155.7077,265.1903,94.8888,-2.5905e-05,-4.02e-06,0.0,0 STARLINK-5076,1 55401U 23014L   24192.35202926 -.00000402  00000-0 -25905-4 0  9995,2 55401  70.0001 155.7077 0003229 265.1903  94.8888 14.98331282 81082,6950.189,96.107,574.298,569.81,0.0
55401.0,STARLINK-5076,PAYLOAD,2024-07-10 22:52:07,14.98329329,0.0003251,70.0,154.1927,265.823,94.2558,5.0821e-05,5.13e-06,0.0,0 STARLINK-5076,1 55401U 23014L   24192.95286833  .00000513  00000-0  50821-4 0  9996,2 55401  70.0000 154.1927 0003251 265.8230  94.2558 14.98329329 81170,6950.195,96.107,574.319,569.8,0.0
55401.0,STARLINK-5076,PAYLOAD,2024-07-11 06:52:47,14.98332911,0.0003231,70.0,153.3511,265.875,94.204,7.7689e-05,8.34e-06,0.0,0 STARLINK-5076,1 55401U 23014L   24193.28666545  .00000834  00000-0  77689-4 0  9992,2 55401  70.0000 153.3511 0003231 265.8750  94.2040 14.98332911 81228,6950.184,96.107,574.294,569.803,0.0
55401.0,STARLINK-5076,PAYLOAD,2024-07-12 05:18:41,14.98327787,0.0003165,70.0001,150.9949,266.7386,93.3411,4.8558e-05,4.86e-06,0.0,0 STARLINK-5076,1 55401U 23014L   24194.22131049  .00000486  00000-0  48558-4 0  9999,2 55401  70.0001 150.9949 0003165 266.7386  93.3411 14.98327787 80426,6950.2,96.107,574.264,569.865,0.0
55401.0,STARLINK-5076,PAYLOAD,2024-07-12 06:54:49,14.98328545,0.0003161,70.0001,150.8266,266.7241,93.3556,5.5855e-05,5.73e-06,0.0,0 STARLINK-5076,1 55401U 23014L   24194.28806991  .00000573  00000-0  55855-4 0  9995,2 55401  70.0001 150.8266 0003161 266.7241  93.3556 14.98328545 81371,6950.197,96.107,574.259,569.865,0.0
55401.0,STARLINK-5076,PAYLOAD,2024-07-12 22:56:09,14.98331143,0.0003152,70.0,149.1425,267.0141,93.0657,1.423e-05,7.7e-07,0.0,0 STARLINK-5076,1 55401U 23014L   24194.95566963  .00000077  00000-0  14230-4 0  9992,2 55401  70.0000 149.1425 0003152 267.0141  93.0657 14.98331143 81479,6950.189,96.107,574.245,569.864,0.0
55401.0,STARLINK-5076,PAYLOAD,2024-07-13 05:20:41,14.98333307,0.0003198,70.0,148.4699,268.0806,91.9987,3.1664e-05,2.85e-06,0.0,0 STARLINK-5076,1 55401U 23014L   24195.22270767  .00000285  00000-0  31664-4 0  9998,2 55401  70.0000 148.4699 0003198 268.0806  91.9987 14.98333307 80570,6950.183,96.107,574.27,569.825,0.0
55401.0,STARLINK-5076,PAYLOAD,2024-07-13 06:56:49,14.98333977,0.0003194,70.0001,148.3016,268.0736,92.0057,3.8982e-05,3.72e-06,0.0,0 STARLINK-5076,1 55401U 23014L   24195.28946695  .00000372  00000-0  38982-4 0  9991,2 55401  70.0001 148.3016 0003194 268.0736  92.0057 14.98333977 81520,6950.181,96.107,574.265,569.826,0.0
55401.0,STARLINK-5076,PAYLOAD,2024-07-13 22:58:09,14.983416,0.0003283,69.9999,146.6185,268.2142,91.8641,0.00014811,1.675e-05,0.0,0 STARLINK-5076,1 55401U 23014L   24195.95705673  .00001675  00000-0  14811-3 0  9995,2 55401  69.9999 146.6185 0003283 268.2142  91.8641 14.98341600 81622,6950.157,96.106,574.304,569.74,0.0
55401.0,STARLINK-5076,PAYLOAD,2024-07-14 03:46:33,14.98346444,0.0003278,69.9998,146.1138,268.2491,91.8292,0.00019734,2.263e-05,0.0,0 STARLINK-5076,1 55401U 23014L   24196.15733108  .00002263  00000-0  19734-3 0  9995,2 55401  69.9998 146.1138 0003278 268.2491  91.8292 14.98346444 80717,6950.142,96.106,574.285,569.729,0.0
55401.0,STARLINK-5076,PAYLOAD,2024-07-14 13:23:22,14.98337009,0.0003132,69.9998,145.1032,274.3677,85.7125,4.5948e-05,4.55e-06,0.0,0 STARLINK-5076,1 55401U 23014L   24196.55789886  .00000455  00000-0  45948-4 0  9991,2 55401  69.9998 145.1032 0003132 274.3677  85.7125 14.98337009 81717,6950.171,96.107,574.213,569.859,0.0
55401.0,STARLINK-5076,PAYLOAD,2024-07-14 23:00:11,14.98328233,0.0003041,70.0004,144.0943,268.0784,92.0026,-3.6818e-05,-5.32e-06,0.0,0 STARLINK-5076,1 55401U 23014L   24196.95846576 -.00000532  00000-0 -36818-4 0  9999,2 55401  70.0004 144.0943 0003041 268.0784  92.0026 14.98328233 81771,6950.198,96.107,574.177,569.95,0.0
55401.0,STARLINK-5076,PAYLOAD,2024-07-15 03:48:35,14.98329599,0.0002953,70.0004,143.5901,267.0766,93.0055,-1.366e-05,-2.56e-06,0.0,0 STARLINK-5076,1 55401U 23014L   24197.15874457 -.00000256  00000-0 -13660-4 0  9994,2 55401  70.0004 143.5901 0002953 267.0766  93.0055 14.98329599 80867,6950.194,96.107,574.112,570.007,0.0
55401.0,STARLINK-5076,PAYLOAD,2024-07-15 07:00:51,14.98331739,0.0002929,70.0005,143.2532,267.2615,92.8209,1.3246e-05,6.5e-07,0.0,0 STARLINK-5076,1 55401U 23014L   24197.29226264  .00000065  00000-0  13246-4 0  9992,2 55401  70.0005 143.2532 0002929 267.2615  92.8209 14.98331739 81827,6950.188,96.107,574.088,570.017,0.0
55401.0,STARLINK-5076,PAYLOAD,2024-07-15 21:26:04,14.98332697,0.0002795,70.0009,141.7392,262.9602,97.1239,-0.0001349,-1.702e-05,0.0,0 STARLINK-5076,1 55401U 23014L   24197.89310431 -.00001702  00000-0 -13490-3 0  9999,2 55401  70.0009 141.7392 0002795 262.9602  97.1239 14.98332697 81912,6950.185,96.107,573.992,570.107,0.0
55401.0,STARLINK-5076,PAYLOAD,2024-07-16 03:50:36,14.98332683,0.0002796,70.0009,141.0655,267.0004,93.0835,-0.00012607,-1.597e-05,0.0,0 STARLINK-5076,1 55401U 23014L   24198.16014389 -.00001597  00000-0 -12607-3 0  9994,2 55401  70.0009 141.0655 0002796 267.0004  93.0835 14.98332683 81013,6950.185,96.107,573.993,570.106,0.0
55401.0,STARLINK-5076,PAYLOAD,2024-07-16 05:26:44,14.98333542,0.0002797,70.0009,140.8972,267.3985,92.6854,-0.00011332,-1.445e-05,0.0,0 STARLINK-5076,1 55401U 23014L   24198.22690291 -.00001445  00000-0 -11332-3 0  9999,2 55401  70.0009 140.8972 0002797 267.3985  92.6854 14.98333542 81969,6950.182,96.107,573.991,570.103,0.0
55401.0,STARLINK-5076,PAYLOAD,2024-07-16 21:28:04,14.98329305,0.0002827,70.0007,139.2133,266.6513,93.4323,0.00010049,1.106e-05,0.0,0 STARLINK-5076,1 55401U 23014L   24198.89449959  .00001106  00000-0  10049-3 0  9991,2 55401  70.0007 139.2133 0002827 266.6513  93.4323 14.98329305 82065,6950.195,96.107,574.025,570.095,0.0
55401.0,STARLINK-5076,PAYLOAD,2024-07-17 03:52:36,14.98333477,0.0002757,70.0008,138.5396,263.9799,96.1046,0.00014915,1.687e-05,0.0,0 STARLINK-5076,1 55401U 23014L   24199.16153613  .00001687  00000-0  14915-3 0  9991,2 55401  70.0008 138.5396 0002757 263.9799  96.1046 14.98333477 81164,6950.182,96.107,573.963,570.131,0.0
55401.0,STARLINK-5076,PAYLOAD,2024-07-17 13:29:25,14.98329531,0.0002469,70.0019,137.5297,269.336,90.7516,9.8985e-05,1.088e-05,0.0,0 STARLINK-5076,1 55401U 23014L   24199.56210114  .00001088  00000-0  98985-4 0  9990,2 55401  70.0019 137.5297 0002469 269.3360  90.7516 14.98329531 82168,6950.194,96.107,573.775,570.343,0.0
55401.0,STARLINK-5076,PAYLOAD,2024-07-17 21:30:06,14.98324708,0.0002766,70.0,136.6862,268.4151,91.6691,4.3374e-05,4.25e-06,0.0,0 STARLINK-5076,1 55401U 23014L   24199.89590661  .00000425  00000-0  43374-4 0  9990,2 55401  70.0000 136.6862 0002766 268.4151  91.6691 14.98324708 82215,6950.209,96.107,573.997,570.152,0.0
55401.0,STARLINK-5076,PAYLOAD,2024-07-18 03:54:39,14.98313468,0.0002789,70.0008,136.0142,268.332,91.752,-6.922e-05,-9.18e-06,0.0,0 STARLINK-5076,1 55401U 23014L   24200.16295790 -.00000918  00000-0 -69220-4 0  9995,2 55401  70.0008 136.0142 0002789 268.3320  91.7520 14.98313468 81313,6950.244,96.108,574.047,570.171,0.0
55401.0,STARLINK-5076,PAYLOAD,2024-07-18 13:31:28,14.98316149,0.0003122,69.9998,135.0048,272.147,87.9331,-0.00010464,-1.341e-05,0.0,0 STARLINK-5076,1 55401U 23014L   24200.56352008 -.00001341  00000-0 -10464-3 0  9991,2 55401  69.9998 135.0048 0003122 272.1470  87.9331 14.98316149 82310,6950.236,96.108,574.271,569.931,0.0
